{
  "type": "FeatureCollection",
  "features": [
    {
      "type": "Feature",
      "properties": {
        "norad_id": 36744,
        "name": "COMS 1",
        "group": "weather",
        "lat": -1.0137446966740349,
        "lon": 64.170458894638,
        "alt_km": 35791.4822270165,
        "timestamp": "2025-12-05T14:45:14.957418+00:00",
        "meta_object_name": "COMS 1",
        "meta_object_id": "2010-032A",
        "meta_epoch": "2025-12-04T14:20:08.606976",
        "meta_mean_motion": 1.00269547,
        "meta_eccentricity": 0.0001149,
        "meta_inclination": 4.3203,
        "meta_ra_of_asc_node": 78.0882,
        "meta_arg_of_pericenter": 188.9827,
        "meta_mean_anomaly": 149.7974,
        "meta_ephemeris_type": 0,
        "meta_classification_type": "U",
        "meta_norad_cat_id": 36744,
        "meta_element_set_no": 999,
        "meta_rev_at_epoch": 4913,
        "meta_bstar": 0,
        "meta_mean_motion_dot": -3.32e-06,
        "meta_mean_motion_ddot": 0,
        "tle_line1": "1 36744U 10032A   25338.59732184 -.00000332  00000+0  00000+0 0  9997",
        "tle_line2": "2 36744   4.3203  78.0882 0001149 188.9827 149.7974  1.00269547 49131"
      },
      "geometry": {
        "type": "Point",
        "coordinates": [
          64.170458894638,
          -1.0137446966740349
        ]
      }
    },
    {
      "type": "Feature",
      "properties": {
        "norad_id": 37214,
        "name": "FENGYUN 3B",
        "group": "weather",
        "lat": 53.013067132883386,
        "lon": -148.3224123373722,
        "alt_km": 843.0119864399912,
        "timestamp": "2025-12-05T14:45:14.957430+00:00",
        "meta_object_name": "FENGYUN 3B",
        "meta_object_id": "2010-059A",
        "meta_epoch": "2025-12-04T18:18:38.891232",
        "meta_mean_motion": 14.14786348,
        "meta_eccentricity": 0.0022389,
        "meta_inclination": 98.992,
        "meta_ra_of_asc_node": 18.6842,
        "meta_arg_of_pericenter": 20.264,
        "meta_mean_anomaly": 89.4225,
        "meta_ephemeris_type": 0,
        "meta_classification_type": "U",
        "meta_norad_cat_id": 37214,
        "meta_element_set_no": 999,
        "meta_rev_at_epoch": 77993,
        "meta_bstar": 0.00013203,
        "meta_mean_motion_dot": 2.1e-06,
        "meta_mean_motion_ddot": 0,
        "tle_line1": "1 37214U 10059A   25338.76295013  .00000210  00000+0  13203-3 0  9990",
        "tle_line2": "2 37214  98.9920  18.6842 0022389  20.2640  89.4225 14.14786348779934"
      },
      "geometry": {
        "type": "Point",
        "coordinates": [
          -148.3224123373722,
          53.013067132883386
        ]
      }
    },
    {
      "type": "Feature",
      "properties": {
        "norad_id": 37849,
        "name": "SUOMI NPP",
        "group": "weather",
        "lat": -25.433501291757306,
        "lon": 92.80777552662957,
        "alt_km": 832.17052781658,
        "timestamp": "2025-12-05T14:45:14.957442+00:00",
        "meta_object_name": "SUOMI NPP",
        "meta_object_id": "2011-061A",
        "meta_epoch": "2025-12-04T19:10:48.419328",
        "meta_mean_motion": 14.19510743,
        "meta_eccentricity": 0.0001949,
        "meta_inclination": 98.7761,
        "meta_ra_of_asc_node": 276.2127,
        "meta_arg_of_pericenter": 134.4579,
        "meta_mean_anomaly": 225.6757,
        "meta_ephemeris_type": 0,
        "meta_classification_type": "U",
        "meta_norad_cat_id": 37849,
        "meta_element_set_no": 999,
        "meta_rev_at_epoch": 73086,
        "meta_bstar": 0.00012059,
        "meta_mean_motion_dot": 2.1e-06,
        "meta_mean_motion_ddot": 0,
        "tle_line1": "1 37849U 11061A   25338.79917152  .00000210  00000+0  12059-3 0  9994",
        "tle_line2": "2 37849  98.7761 276.2127 0001949 134.4579 225.6757 14.19510743730867"
      },
      "geometry": {
        "type": "Point",
        "coordinates": [
          92.80777552662957,
          -25.433501291757306
        ]
      }
    },
    {
      "type": "Feature",
      "properties": {
        "norad_id": 38552,
        "name": "METEOSAT-10 (MSG-3)",
        "group": "weather",
        "lat": -3.4379785734607964,
        "lon": -63.985085858036655,
        "alt_km": 35782.95460851221,
        "timestamp": "2025-12-05T14:45:14.957454+00:00",
        "meta_object_name": "METEOSAT-10 (MSG-3)",
        "meta_object_id": "2012-035B",
        "meta_epoch": "2025-12-04T01:44:31.731072",
        "meta_mean_motion": 1.00272508,
        "meta_eccentricity": 8.021e-05,
        "meta_inclination": 4.2071,
        "meta_ra_of_asc_node": 61.7359,
        "meta_arg_of_pericenter": 221.6691,
        "meta_mean_anomaly": 175.985,
        "meta_ephemeris_type": 0,
        "meta_classification_type": "U",
        "meta_norad_cat_id": 38552,
        "meta_element_set_no": 999,
        "meta_rev_at_epoch": 4890,
        "meta_bstar": 0,
        "meta_mean_motion_dot": 8e-08,
        "meta_mean_motion_ddot": 0,
        "tle_line1": "1 38552U 12035B   25338.07258948  .00000008  00000+0  00000+0 0  9994",
        "tle_line2": "2 38552   4.2071  61.7359 0000802 221.6691 175.9850  1.00272508 48908"
      },
      "geometry": {
        "type": "Point",
        "coordinates": [
          -63.985085858036655,
          -3.4379785734607964
        ]
      }
    },
    {
      "type": "Feature",
      "properties": {
        "norad_id": 38771,
        "name": "METOP-B",
        "group": "weather",
        "lat": 9.167568612567106,
        "lon": 28.281160200479164,
        "alt_km": 823.8498989841055,
        "timestamp": "2025-12-05T14:45:14.957465+00:00",
        "meta_object_name": "METOP-B",
        "meta_object_id": "2012-049A",
        "meta_epoch": "2025-12-04T16:44:53.128896",
        "meta_mean_motion": 14.21403839,
        "meta_eccentricity": 0.0002555,
        "meta_inclination": 98.6811,
        "meta_ra_of_asc_node": 28.7926,
        "meta_arg_of_pericenter": 162.161,
        "meta_mean_anomaly": 197.9657,
        "meta_ephemeris_type": 0,
        "meta_classification_type": "U",
        "meta_norad_cat_id": 38771,
        "meta_element_set_no": 999,
        "meta_rev_at_epoch": 68563,
        "meta_bstar": 0.00015431,
        "meta_mean_motion_dot": 2.94e-06,
        "meta_mean_motion_ddot": 0,
        "tle_line1": "1 38771U 12049A   25338.69783714  .00000294  00000+0  15431-3 0  9999",
        "tle_line2": "2 38771  98.6811  28.7926 0002555 162.1610 197.9657 14.21403839685636"
      },
      "geometry": {
        "type": "Point",
        "coordinates": [
          28.281160200479164,
          9.167568612567106
        ]
      }
    },
    {
      "type": "Feature",
      "properties": {
        "norad_id": 39216,
        "name": "INSAT-3D",
        "group": "weather",
        "lat": -0.45004185318153417,
        "lon": 65.50472192867801,
        "alt_km": 35793.40938897403,
        "timestamp": "2025-12-05T14:45:14.957477+00:00",
        "meta_object_name": "INSAT-3D",
        "meta_object_id": "2013-038B",
        "meta_epoch": "2025-12-04T14:20:31.070976",
        "meta_mean_motion": 1.00273216,
        "meta_eccentricity": 0.0001779,
        "meta_inclination": 1.4223,
        "meta_ra_of_asc_node": 85.085,
        "meta_arg_of_pericenter": 156.7246,
        "meta_mean_anomaly": 176.5152,
        "meta_ephemeris_type": 0,
        "meta_classification_type": "U",
        "meta_norad_cat_id": 39216,
        "meta_element_set_no": 999,
        "meta_rev_at_epoch": 4512,
        "meta_bstar": 0,
        "meta_mean_motion_dot": -3.25e-06,
        "meta_mean_motion_ddot": 0,
        "tle_line1": "1 39216U 13038B   25338.59758184 -.00000325  00000+0  00000+0 0  9993",
        "tle_line2": "2 39216   1.4223  85.0850 0001779 156.7246 176.5152  1.00273216 45127"
      },
      "geometry": {
        "type": "Point",
        "coordinates": [
          65.50472192867801,
          -0.45004185318153417
        ]
      }
    },
    {
      "type": "Feature",
      "properties": {
        "norad_id": 39260,
        "name": "FENGYUN 3C",
        "group": "weather",
        "lat": 42.17399961383322,
        "lon": -50.120979723980135,
        "alt_km": 846.4567091695735,
        "timestamp": "2025-12-05T14:45:14.957488+00:00",
        "meta_object_name": "FENGYUN 3C",
        "meta_object_id": "2013-052A",
        "meta_epoch": "2025-12-04T18:11:50.828352",
        "meta_mean_motion": 14.15692637,
        "meta_eccentricity": 0.0013885,
        "meta_inclination": 98.4755,
        "meta_ra_of_asc_node": 316.8277,
        "meta_arg_of_pericenter": 219.9753,
        "meta_mean_anomaly": 140.04,
        "meta_ephemeris_type": 0,
        "meta_classification_type": "U",
        "meta_norad_cat_id": 39260,
        "meta_element_set_no": 999,
        "meta_rev_at_epoch": 63105,
        "meta_bstar": 0.00014643,
        "meta_mean_motion_dot": 2.46e-06,
        "meta_mean_motion_ddot": 0,
        "tle_line1": "1 39260U 13052A   25338.75822718  .00000246  00000+0  14643-3 0  9994",
        "tle_line2": "2 39260  98.4755 316.8277 0013885 219.9753 140.0400 14.15692637631053"
      },
      "geometry": {
        "type": "Point",
        "coordinates": [
          -50.120979723980135,
          42.17399961383322
        ]
      }
    }
  ]
}